[{"OBJECT_NAME":"STARLINK-35142","OBJECT_ID":"2025-194A","EPOCH":"2026-03-09T13:19:58.831392","MEAN_MOTION":15.05636301,"ECCENTRICITY":0.00015538,"INCLINATION":97.602,"RA_OF_ASC_NODE":284.1856,"ARG_OF_PERICENTER":85.541,"MEAN_ANOMALY":274.5994,"EPHEMERIS_TYPE":0,"CLASSIFICATION_TYPE":"U","NORAD_CAT_ID":65434,"ELEMENT_SET_NO":999,"REV_AT_EPOCH":2962,"BSTAR":0.00050523621,"MEAN_MOTION_DOT":7.234e-5,"MEAN_MOTION_DDOT":0},{"OBJECT_NAME":"COSMOS 2251 DEB","OBJECT_ID":"1993-036KZ","EPOCH":"2026-03-09T13:28:08.575968","MEAN_MOTION":15.07827872,"ECCENTRICITY":0.00279097,"INCLINATION":73.9949,"RA_OF_ASC_NODE":118.7357,"ARG_OF_PERICENTER":226.7607,"MEAN_ANOMALY":259.798,"EPHEMERIS_TYPE":0,"CLASSIFICATION_TYPE":"U","NORAD_CAT_ID":34128,"ELEMENT_SET_NO":999,"REV_AT_EPOCH":90472,"BSTAR":0.0021198383,"MEAN_MOTION_DOT":0.0003287,"MEAN_MOTION_DDOT":0}]
